STARLINK-4482           
1 53530U 22101D   26068.38949222  .00000155  00000+0  27849-4 0  9997
2 53530  53.2165  75.6890 0001295  91.0814 269.0326 15.08838389196114
DISKSAT B               
1 67220U 25305B   26068.81497770  .00012481  00000+0  82401-3 0  9990
2 67220  45.0018 250.2098 0003783 311.4052  48.6498 15.07484556 12311
